FENGYUN 1C DEB          
1 31555U 99025BYW 17344.17617786  .00000682  00000-0  26985-3 0  9995
2 31555  99.1391 126.8412 0206649 333.1965  25.8649 14.21558771548602
